{
  "type": "FeatureCollection",
  "features": [
    {
      "type": "Feature",
      "properties": {
        "norad_id": 37054,
        "name": "FENGYUN 1C DEB",
        "group": "fengyun-1c-debris",
        "lat": 2.012862008098031,
        "lon": -21.763261149329146,
        "alt_km": 810.6542875971218,
        "timestamp": "2025-12-22T09:53:37.690392+00:00",
        "meta_object_name": "FENGYUN 1C DEB",
        "meta_object_id": "1999-025EEN",
        "meta_epoch": "2025-12-18T04:22:47.839296",
        "meta_mean_motion": 14.19457855,
        "meta_eccentricity": 0.01012295,
        "meta_inclination": 98.5505,
        "meta_ra_of_asc_node": 334.4558,
        "meta_arg_of_pericenter": 89.7023,
        "meta_mean_anomaly": 271.5753,
        "meta_ephemeris_type": 0,
        "meta_classification_type": "U",
        "meta_norad_cat_id": 37054,
        "meta_element_set_no": 999,
        "meta_rev_at_epoch": 64506,
        "meta_bstar": 0.00022919283,
        "meta_mean_motion_dot": 4.67e-06,
        "meta_mean_motion_ddot": 0,
        "tle_line1": "1 37054U 99025EEN 25352.18249814  .00000467  00000+0  22919-3 0  9990",
        "tle_line2": "2 37054  98.5505 334.4558 0101229  89.7023 271.5753 14.19457855645069"
      },
      "geometry": {
        "type": "Point",
        "coordinates": [
          -21.763261149329146,
          2.012862008098031
        ]
      }
    },
    {
      "type": "Feature",
      "properties": {
        "norad_id": 37056,
        "name": "FENGYUN 1C DEB",
        "group": "fengyun-1c-debris",
        "lat": -12.894958463336412,
        "lon": -162.7238167690406,
        "alt_km": 677.9447885127174,
        "timestamp": "2025-12-22T09:53:37.690402+00:00",
        "meta_object_name": "FENGYUN 1C DEB",
        "meta_object_id": "1999-025EEQ",
        "meta_epoch": "2025-12-17T08:10:24.720960",
        "meta_mean_motion": 14.50465139,
        "meta_eccentricity": 0.02688582,
        "meta_inclination": 98.9815,
        "meta_ra_of_asc_node": 13.9371,
        "meta_arg_of_pericenter": 132.0541,
        "meta_mean_anomaly": 230.387,
        "meta_ephemeris_type": 0,
        "meta_classification_type": "U",
        "meta_norad_cat_id": 37056,
        "meta_element_set_no": 999,
        "meta_rev_at_epoch": 65478,
        "meta_bstar": 0.0002042958,
        "meta_mean_motion_dot": 1.21e-05,
        "meta_mean_motion_ddot": 0,
        "tle_line1": "1 37056U 99025EEQ 25351.34056390  .00001210  00000+0  20430-3 0  9997",
        "tle_line2": "2 37056  98.9815  13.9371 0268858 132.0541 230.3870 14.50465139654781"
      },
      "geometry": {
        "type": "Point",
        "coordinates": [
          -162.7238167690406,
          -12.894958463336412
        ]
      }
    },
    {
      "type": "Feature",
      "properties": {
        "norad_id": 37057,
        "name": "FENGYUN 1C DEB",
        "group": "fengyun-1c-debris",
        "lat": -38.05966228853711,
        "lon": -176.13279480975638,
        "alt_km": 964.2257814974209,
        "timestamp": "2025-12-22T09:53:37.690412+00:00",
        "meta_object_name": "FENGYUN 1C DEB",
        "meta_object_id": "1999-025EER",
        "meta_epoch": "2025-12-19T18:57:33.353568",
        "meta_mean_motion": 13.96116671,
        "meta_eccentricity": 0.02853199,
        "meta_inclination": 98.9208,
        "meta_ra_of_asc_node": 8.387,
        "meta_arg_of_pericenter": 120.0686,
        "meta_mean_anomaly": 242.91,
        "meta_ephemeris_type": 0,
        "meta_classification_type": "U",
        "meta_norad_cat_id": 37057,
        "meta_element_set_no": 999,
        "meta_rev_at_epoch": 63696,
        "meta_bstar": 7.2468399e-05,
        "meta_mean_motion_dot": 9.9e-07,
        "meta_mean_motion_ddot": 0,
        "tle_line1": "1 37057U 99025EER 25353.78996937  .00000099  00000+0  72468-4 0  9991",
        "tle_line2": "2 37057  98.9208   8.3870 0285319 120.0686 242.9100 13.96116671636966"
      },
      "geometry": {
        "type": "Point",
        "coordinates": [
          -176.13279480975638,
          -38.05966228853711
        ]
      }
    },
    {
      "type": "Feature",
      "properties": {
        "norad_id": 37061,
        "name": "FENGYUN 1C DEB",
        "group": "fengyun-1c-debris",
        "lat": -11.59514101677157,
        "lon": -123.09196225219445,
        "alt_km": 1727.058845299407,
        "timestamp": "2025-12-22T09:53:37.690421+00:00",
        "meta_object_name": "FENGYUN 1C DEB",
        "meta_object_id": "1999-025EEV",
        "meta_epoch": "2025-12-18T09:50:01.681152",
        "meta_mean_motion": 13.13570746,
        "meta_eccentricity": 0.0801378,
        "meta_inclination": 98.0851,
        "meta_ra_of_asc_node": 55.4892,
        "meta_arg_of_pericenter": 351.5377,
        "meta_mean_anomaly": 7.2876,
        "meta_ephemeris_type": 0,
        "meta_classification_type": "U",
        "meta_norad_cat_id": 37061,
        "meta_element_set_no": 999,
        "meta_rev_at_epoch": 8230,
        "meta_bstar": 0.002535,
        "meta_mean_motion_dot": 4.904e-05,
        "meta_mean_motion_ddot": 0,
        "tle_line1": "1 37061U 99025EEV 25352.40974168  .00004904  00000+0  25350-2 0  9991",
        "tle_line2": "2 37061  98.0851  55.4892 0801378 351.5377   7.2876 13.13570746 82301"
      },
      "geometry": {
        "type": "Point",
        "coordinates": [
          -123.09196225219445,
          -11.59514101677157
        ]
      }
    },
    {
      "type": "Feature",
      "properties": {
        "norad_id": 37064,
        "name": "FENGYUN 1C DEB",
        "group": "fengyun-1c-debris",
        "lat": 66.96883677261428,
        "lon": 126.89847867055917,
        "alt_km": 755.3434998557996,
        "timestamp": "2025-12-22T09:53:37.690431+00:00",
        "meta_object_name": "FENGYUN 1C DEB",
        "meta_object_id": "1999-025EEY",
        "meta_epoch": "2025-11-25T16:29:09.460320",
        "meta_mean_motion": 14.15612933,
        "meta_eccentricity": 0.01070067,
        "meta_inclination": 98.9095,
        "meta_ra_of_asc_node": 121.83,
        "meta_arg_of_pericenter": 150.7609,
        "meta_mean_anomaly": 209.9612,
        "meta_ephemeris_type": 0,
        "meta_classification_type": "U",
        "meta_norad_cat_id": 37064,
        "meta_element_set_no": 999,
        "meta_rev_at_epoch": 81294,
        "meta_bstar": 0.0049331234,
        "meta_mean_motion_dot": 0.00010179,
        "meta_mean_motion_ddot": 0,
        "tle_line1": "1 37064U 99025EEY 25329.68691505  .00010179  00000+0  49331-2 0  9995",
        "tle_line2": "2 37064  98.9095 121.8300 0107006 150.7609 209.9612 14.15612933812947"
      },
      "geometry": {
        "type": "Point",
        "coordinates": [
          126.89847867055917,
          66.96883677261428
        ]
      }
    },
    {
      "type": "Feature",
      "properties": {
        "norad_id": 37065,
        "name": "FENGYUN 1C DEB",
        "group": "fengyun-1c-debris",
        "lat": 42.75684772527846,
        "lon": 7.220712864945715,
        "alt_km": 1012.7784387364145,
        "timestamp": "2025-12-22T09:53:37.690441+00:00",
        "meta_object_name": "FENGYUN 1C DEB",
        "meta_object_id": "1999-025EEZ",
        "meta_epoch": "2025-12-13T18:30:23.335488",
        "meta_mean_motion": 13.59126537,
        "meta_eccentricity": 0.02987556,
        "meta_inclination": 103.2861,
        "meta_ra_of_asc_node": 162.9273,
        "meta_arg_of_pericenter": 240.3853,
        "meta_mean_anomaly": 116.7203,
        "meta_ephemeris_type": 0,
        "meta_classification_type": "U",
        "meta_norad_cat_id": 37065,
        "meta_element_set_no": 999,
        "meta_rev_at_epoch": 22216,
        "meta_bstar": 0.0032978969,
        "meta_mean_motion_dot": 3.181e-05,
        "meta_mean_motion_ddot": 0,
        "tle_line1": "1 37065U 99025EEZ 25347.77110342  .00003181  00000+0  32979-2 0  9996",
        "tle_line2": "2 37065 103.2861 162.9273 0298755 240.3853 116.7203 13.59126537222160"
      },
      "geometry": {
        "type": "Point",
        "coordinates": [
          7.220712864945715,
          42.75684772527846
        ]
      }
    },
    {
      "type": "Feature",
      "properties": {
        "norad_id": 37067,
        "name": "FENGYUN 1C DEB",
        "group": "fengyun-1c-debris",
        "lat": -67.28669771473061,
        "lon": -37.933420821998055,
        "alt_km": 1002.1251977286411,
        "timestamp": "2025-12-22T09:53:37.690451+00:00",
        "meta_object_name": "FENGYUN 1C DEB",
        "meta_object_id": "1999-025EFB",
        "meta_epoch": "2025-12-21T01:38:57.261120",
        "meta_mean_motion": 14.00389884,
        "meta_eccentricity": 0.01565844,
        "meta_inclination": 99.5385,
        "meta_ra_of_asc_node": 296.9816,
        "meta_arg_of_pericenter": 89.0148,
        "meta_mean_anomaly": 272.8951,
        "meta_ephemeris_type": 0,
        "meta_classification_type": "U",
        "meta_norad_cat_id": 37067,
        "meta_element_set_no": 999,
        "meta_rev_at_epoch": 57525,
        "meta_bstar": 0.0026651528,
        "meta_mean_motion_dot": 4.346e-05,
        "meta_mean_motion_ddot": 0,
        "tle_line1": "1 37067U 99025EFB 25355.06871830  .00004346  00000+0  26652-2 0  9990",
        "tle_line2": "2 37067  99.5385 296.9816 0156584  89.0148 272.8951 14.00389884575257"
      },
      "geometry": {
        "type": "Point",
        "coordinates": [
          -37.933420821998055,
          -67.28669771473061
        ]
      }
    }
  ]
}